COSMOS 2433 (720)       
1 32275U 07052A   26114.88955959 -.00000025  00000+0  00000+0 0  9991
2 32275  65.6073 317.7278 0000877 210.0462 149.9789  2.13103913143929
COSMOS 2432 (719)       
1 32276U 07052B   26116.13870983 -.00000028  00000+0  00000+0 0  9998
2 32276  65.6218 317.8121 0009020 337.4838 204.9130  2.13103016143970
COSMOS 2434 (721)       
1 32393U 07065A   26113.26133750 -.00000006  00000+0  00000+0 0  9993
2 32393  64.3156 193.7675 0001761  53.0873  27.9132  2.13101316142601
COSMOS 2436 (723)       
1 32395U 07065C   26114.86144604 -.00000017  00000+0  00000+0 0  9994
2 32395  64.3242 193.7851 0017184 359.7473   1.3358  2.13100207142595
COSMOS 2456 (730)       
1 36111U 09070A   26116.93488095 -.00000007  00000+0  00000+0 0  9996
2 36111  64.9833  72.7188 0006185 317.3531 219.7098  2.13103361127335
COSMOS 2457 (733)       
1 36112U 09070B   26117.16229117 -.00000010  00000+0  00000+0 0  9995
2 36112  64.9688  72.5561 0001155 162.1802 317.2213  2.13100836127344
COSMOS 2460 (732)       
1 36402U 10007C   26115.60205325 -.00000025  00000+0  00000+0 0  9997
2 36402  65.4503 316.2461 0002277  66.9045 297.1399  2.13105948125619
COSMOS 2476 (744)       
1 37867U 11064A   26115.64061854  .00000013  00000+0  00000+0 0  9994
2 37867  65.2415  74.6442 0024289 242.1943 290.2948  2.13103647112648
COSMOS 2477 (745)       
1 37868U 11064B   26115.41341578  .00000015  00000+0  00000+0 0  9996
2 37868  65.2482  74.7307 0021218 243.9746 294.7055  2.13102721112632
COSMOS 2475 (743)       
1 37869U 11064C   26116.40173816  .00000005  00000+0  00000+0 0  9994
2 37869  65.2555  74.7187 0027096 255.3204 276.9088  2.13101656112663
COSMOS 2485 (747)       
1 39155U 13019A   26113.00664174  .00000025  00000+0  00000+0 0  9993
2 39155  65.3905  75.4553 0024583 237.7272 122.0157  2.13103112101109
COSMOS 2492 (754)       
1 39620U 14012A   26111.55782382 -.00000024  00000+0  00000+0 0  9994
2 39620  65.3303 315.8614 0011743 330.3825  29.5784  2.13103169 94037
COSMOS 2500 (755)       
1 40001U 14032A   26116.89009990 -.00000029  00000+0  00000+0 0  9995
2 40001  65.2618 315.4308 0005744 181.8754 178.1502  2.13105827 92366
COSMOS 2501 (702K)      
1 40315U 14075A   26117.15145856 -.00000001  00000+0  00000+0 0  9992
2 40315  63.6140 192.1381 0021867 210.0421 149.8850  2.13101300 88769
COSMOS 2514 (751)       
1 41330U 16008A   26116.19734976 -.00000026  00000+0  00000+0 0  9995
2 41330  65.0524 314.7909 0009488 198.1735 161.8195  2.13102638 79510
COSMOS 2522 (752)       
1 42939U 17055A   26115.09669524 -.00000017  00000+0  00000+0 0  9998
2 42939  64.0763 193.6909 0009475 236.5464 123.4103  2.13101747 66841
COSMOS 2527 (756)       
1 43508U 18053A   26115.99657815  .00000013  00000+0  00000+0 0  9994
2 43508  65.5504  75.6470 0008600 248.7222 111.1654  2.13101904 61161
